start=new Date('2021-12-22T00:00:00.000Z').valueOf();
sats=[{"COUNTRY_CODE":"US","SEMIMAJOR_AXIS":"6925.339","FILE":"3246784","CLASSIFICATION_TYPE":"U","ECCENTRICITY":"0.00026020","ELEMENT_SET_NO":"999","EPHEMERIS_TYPE":"0","MEAN_MOTION":"15.06403163","OBJECT_ID":"2021-036BK","PERIAPSIS":"545.402","NORAD_CAT_ID":"48333","MEAN_ELEMENT_THEORY":"SGP4","EPOCH":"2021-12-21T21:16:40.283904","GP_ID":"192178896","ARG_OF_PERICENTER":"85.9834","MEAN_ANOMALY":"274.1452","SITE":"AFETR","TLE_LINE2":"2 48333  53.0518 169.5777 0002602  85.9834 274.1452 15.06403163 36108","DECAY_DATE":null,"REV_AT_EPOCH":"3610","OBJECT_NAME":"STARLINK-2518","TLE_LINE1":"1 48333U 21036BK  21355.88657736  .00002462  00000-0  18416-3 0  9996","PERIOD":"95.592","MEAN_MOTION_DDOT":"0.0000000000000","REF_FRAME":"TEME","OBJECT_TYPE":"PAYLOAD","INCLINATION":"53.0518","BSTAR":"0.00018416000000","LAUNCH_DATE":"2021-04-29","TIME_SYSTEM":"UTC","RCS_SIZE":"LARGE","CENTER_NAME":"EARTH","RA_OF_ASC_NODE":"169.5777","APOAPSIS":"549.006","MEAN_MOTION_DOT":"0.00002462"},{"MEAN_ELEMENT_THEORY":"SGP4","EPOCH":"2021-12-21T21:11:20.960736","GP_ID":"192178144","ARG_OF_PERICENTER":"90.0608","MEAN_ANOMALY":"270.0636","TLE_LINE2":"2 48334  53.0529 169.5949 0002227  90.0608 270.0636 15.06402418 36102","SITE":"AFETR","ELEMENT_SET_NO":"999","EPHEMERIS_TYPE":"0","MEAN_MOTION":"15.06402418","OBJECT_ID":"2021-036BL","PERIAPSIS":"545.664","NORAD_CAT_ID":"48334","SEMIMAJOR_AXIS":"6925.341","FILE":"3246784","CLASSIFICATION_TYPE":"U","ECCENTRICITY":"0.00022270","COUNTRY_CODE":"US","RCS_SIZE":"LARGE","CENTER_NAME":"EARTH","RA_OF_ASC_NODE":"169.5949","APOAPSIS":"548.748","MEAN_MOTION_DOT":"0.00001126","INCLINATION":"53.0529","BSTAR":"0.00009448700000","LAUNCH_DATE":"2021-04-29","TIME_SYSTEM":"UTC","TLE_LINE1":"1 48334U 21036BL  21355.88288149  .00001126  00000-0  94487-4 0  9994","PERIOD":"95.592","MEAN_MOTION_DDOT":"0.0000000000000","REF_FRAME":"TEME","OBJECT_TYPE":"PAYLOAD","DECAY_DATE":null,"REV_AT_EPOCH":"3610","OBJECT_NAME":"STARLINK-2470"},{"NORAD_CAT_ID":"48335","PERIAPSIS":"545.515","OBJECT_ID":"2021-036BM","MEAN_MOTION":"15.06393117","EPHEMERIS_TYPE":"0","ELEMENT_SET_NO":"999","SITE":"AFETR","TLE_LINE2":"2 48335  53.0540 169.6140 0002483  89.8282 270.2991 15.06393117 36109","MEAN_ANOMALY":"270.2991","ARG_OF_PERICENTER":"89.8282","GP_ID":"192178394","EPOCH":"2021-12-21T21:06:03.250656","MEAN_ELEMENT_THEORY":"SGP4","COUNTRY_CODE":"US","ECCENTRICITY":"0.00024830","CLASSIFICATION_TYPE":"U","FILE":"3246784","SEMIMAJOR_AXIS":"6925.370","TIME_SYSTEM":"UTC","LAUNCH_DATE":"2021-04-29","BSTAR":"0.00008640100000","INCLINATION":"53.0540","MEAN_MOTION_DOT":"0.00001005","APOAPSIS":"548.954","RA_OF_ASC_NODE":"169.6140","CENTER_NAME":"EARTH","RCS_SIZE":"LARGE","OBJECT_NAME":"STARLINK-2441","REV_AT_EPOCH":"3610","DECAY_DATE":null,"OBJECT_TYPE":"PAYLOAD","REF_FRAME":"TEME","MEAN_MOTION_DDOT":"0.0000000000000","PERIOD":"95.593","TLE_LINE1":"1 48335U 21036BM  21355.87920429  .00001005  00000-0  86401-4 0  9991"},{"COUNTRY_CODE":"US","ECCENTRICITY":"0.00015920","SEMIMAJOR_AXIS":"6925.323","FILE":"3246784","CLASSIFICATION_TYPE":"U","MEAN_MOTION":"15.06408364","OBJECT_ID":"2021-038A","PERIAPSIS":"546.085","NORAD_CAT_ID":"48353","ELEMENT_SET_NO":"999","EPHEMERIS_TYPE":"0","MEAN_ANOMALY":"267.9788","SITE":"AFETR","TLE_LINE2":"2 48353  53.0545  70.4832 0001592  92.1383 267.9788 15.06408364 35062","EPOCH":"2021-12-21T16:27:21.600288","MEAN_ELEMENT_THEORY":"SGP4","GP_ID":"192178898","ARG_OF_PERICENTER":"92.1383","REV_AT_EPOCH":"3506","OBJECT_NAME":"STARLINK-2613","DECAY_DATE":null,"REF_FRAME":"TEME","OBJECT_TYPE":"PAYLOAD","TLE_LINE1":"1 48353U 21038A   21355.68566667  .00001746  00000-0  13608-3 0  9992","PERIOD":"95.592","MEAN_MOTION_DDOT":"0.0000000000000","INCLINATION":"53.0545","BSTAR":"0.00013608000000","LAUNCH_DATE":"2021-05-04","TIME_SYSTEM":"UTC","APOAPSIS":"548.290","MEAN_MOTION_DOT":"0.00001746","RCS_SIZE":"LARGE","CENTER_NAME":"EARTH","RA_OF_ASC_NODE":"70.4832"},{"COUNTRY_CODE":"US","ECCENTRICITY":"0.00013460","CLASSIFICATION_TYPE":"U","SEMIMAJOR_AXIS":"6925.314","FILE":"3246489","PERIAPSIS":"546.247","NORAD_CAT_ID":"48354","MEAN_MOTION":"15.06411335","OBJECT_ID":"2021-038B","EPHEMERIS_TYPE":"0","ELEMENT_SET_NO":"999","TLE_LINE2":"2 48354  53.0563  71.0851 0001346  86.4554 273.6588 15.06411335 35046","SITE":"AFETR","MEAN_ANOMALY":"273.6588","GP_ID":"192148736","ARG_OF_PERICENTER":"86.4554","MEAN_ELEMENT_THEORY":"SGP4","EPOCH":"2021-12-21T13:10:57.696096","REV_AT_EPOCH":"3504","OBJECT_NAME":"STARLINK-2674","DECAY_DATE":null,"REF_FRAME":"TEME","OBJECT_TYPE":"PAYLOAD","PERIOD":"95.591","MEAN_MOTION_DDOT":"0.0000000000000","TLE_LINE1":"1 48354U 21038B   21355.54927889  .00002889  00000-0  21270-3 0  9998","LAUNCH_DATE":"2021-05-04","TIME_SYSTEM":"UTC","INCLINATION":"53.0563","BSTAR":"0.00021270000000","MEAN_MOTION_DOT":"0.00002889","APOAPSIS":"548.111","CENTER_NAME":"EARTH","RA_OF_ASC_NODE":"71.0851","RCS_SIZE":"LARGE"},{"RCS_SIZE":"LARGE","RA_OF_ASC_NODE":"70.5171","CENTER_NAME":"EARTH","APOAPSIS":"548.195","MEAN_MOTION_DOT":"0.00003012","BSTAR":"0.00022095000000","INCLINATION":"53.0554","TIME_SYSTEM":"UTC","LAUNCH_DATE":"2021-05-04","TLE_LINE1":"1 48355U 21038C   21355.67829642  .00003012  00000-0  22095-3 0  9996","MEAN_MOTION_DDOT":"0.0000000000000","PERIOD":"95.592","OBJECT_TYPE":"PAYLOAD","REF_FRAME":"TEME","DECAY_DATE":null,"OBJECT_NAME":"STARLINK-2635","REV_AT_EPOCH":"3506","EPOCH":"2021-12-21T16:16:44.810688","MEAN_ELEMENT_THEORY":"SGP4","ARG_OF_PERICENTER":"93.6130","GP_ID":"192178396","MEAN_ANOMALY":"266.5025","SITE":"AFETR","TLE_LINE2":"2 48355  53.0554  70.5171 0001454  93.6130 266.5025 15.06408219 35062","ELEMENT_SET_NO":"999","EPHEMERIS_TYPE":"0","OBJECT_ID":"2021-038C","MEAN_MOTION":"15.06408219","NORAD_CAT_ID":"48355","PERIAPSIS":"546.181","FILE":"3246784","SEMIMAJOR_AXIS":"6925.323","CLASSIFICATION_TYPE":"U","ECCENTRICITY":"0.00014540","COUNTRY_CODE":"US"},{"LAUNCH_DATE":"2021-05-04","TIME_SYSTEM":"UTC","INCLINATION":"53.0569","BSTAR":"0.00026147000000","MEAN_MOTION_DOT":"0.00003617","APOAPSIS":"548.177","CENTER_NAME":"EARTH","RA_OF_ASC_NODE":"70.8194","RCS_SIZE":"LARGE","REV_AT_EPOCH":"3505","OBJECT_NAME":"STARLINK-2637","DECAY_DATE":null,"REF_FRAME":"TEME","OBJECT_TYPE":"PAYLOAD","PERIOD":"95.591","MEAN_MOTION_DDOT":"0.0000000000000","TLE_LINE1":"1 48356U 21038D   21355.60826283  .00003617  00000-0  26147-3 0  9991","PERIAPSIS":"546.155","NORAD_CAT_ID":"48356","MEAN_MOTION":"15.06415565","OBJECT_ID":"2021-038D","EPHEMERIS_TYPE":"0","ELEMENT_SET_NO":"999","TLE_LINE2":"2 48356  53.0569  70.8194 0001460 100.9022 259.2131 15.06415565 35054","SITE":"AFETR","MEAN_ANOMALY":"259.2131","GP_ID":"192179145","ARG_OF_PERICENTER":"100.9022","EPOCH":"2021-12-21T14:35:53.908512","MEAN_ELEMENT_THEORY":"SGP4","COUNTRY_CODE":"US","ECCENTRICITY":"0.00014600","CLASSIFICATION_TYPE":"U","SEMIMAJOR_AXIS":"6925.301","FILE":"3246784"},{"COUNTRY_CODE":"US","ECCENTRICITY":"0.00014030","FILE":"3246784","SEMIMAJOR_AXIS":"6925.290","CLASSIFICATION_TYPE":"U","OBJECT_ID":"2021-038E","MEAN_MOTION":"15.06419249","NORAD_CAT_ID":"48357","PERIAPSIS":"546.183","ELEMENT_SET_NO":"999","EPHEMERIS_TYPE":"0","MEAN_ANOMALY":"269.4848","TLE_LINE2":"2 48357  53.0549  70.8366 0001403  90.6302 269.4848 15.06419249 35058","SITE":"AFETR","EPOCH":"2021-12-21T14:30:35.116704","MEAN_ELEMENT_THEORY":"SGP4","ARG_OF_PERICENTER":"90.6302","GP_ID":"192179398","OBJECT_NAME":"STARLINK-2636","REV_AT_EPOCH":"3505","DECAY_DATE":null,"OBJECT_TYPE":"PAYLOAD","REF_FRAME":"TEME","TLE_LINE1":"1 48357U 21038E   21355.60457311  .00003993  00000-0  28668-3 0  9991","MEAN_MOTION_DDOT":"0.0000000000000","PERIOD":"95.591","BSTAR":"0.00028668000000","INCLINATION":"53.0549","TIME_SYSTEM":"UTC","LAUNCH_DATE":"2021-05-04","APOAPSIS":"548.126","MEAN_MOTION_DOT":"0.00003993","RCS_SIZE":"LARGE","RA_OF_ASC_NODE":"70.8366","CENTER_NAME":"EARTH"},{"DECAY_DATE":null,"REV_AT_EPOCH":"3504","OBJECT_NAME":"STARLINK-2624","TLE_LINE1":"1 48358U 21038F   21355.60089213  .00003543  00000-0  25650-3 0  9993","PERIOD":"95.591","MEAN_MOTION_DDOT":"0.0000000000000","REF_FRAME":"TEME","OBJECT_TYPE":"PAYLOAD","INCLINATION":"53.0540","BSTAR":"0.00025650000000","LAUNCH_DATE":"2021-05-04","TIME_SYSTEM":"UTC","RCS_SIZE":"LARGE","CENTER_NAME":"EARTH","RA_OF_ASC_NODE":"70.8496","APOAPSIS":"548.063","MEAN_MOTION_DOT":"0.00003543","COUNTRY_CODE":"US","SEMIMAJOR_AXIS":"6925.307","FILE":"3246489","CLASSIFICATION_TYPE":"U","ECCENTRICITY":"0.00012860","ELEMENT_SET_NO":"999","EPHEMERIS_TYPE":"0","MEAN_MOTION":"15.06413548","OBJECT_ID":"2021-038F","PERIAPSIS":"546.281","NORAD_CAT_ID":"48358","EPOCH":"2021-12-21T14:25:17.080032","MEAN_ELEMENT_THEORY":"SGP4","GP_ID":"192149237","ARG_OF_PERICENTER":"90.3789","MEAN_ANOMALY":"269.7348","SITE":"AFETR","TLE_LINE2":"2 48358  53.0540  70.8496 0001286  90.3789 269.7348 15.06413548 35042"},{"BSTAR":"0.00013133000000","INCLINATION":"53.0556","TIME_SYSTEM":"UTC","LAUNCH_DATE":"2021-05-04","RCS_SIZE":"LARGE","RA_OF_ASC_NODE":"70.8709","CENTER_NAME":"EARTH","APOAPSIS":"548.158","MEAN_MOTION_DOT":"0.00001676","DECAY_DATE":null,"OBJECT_NAME":"STARLINK-2628","REV_AT_EPOCH":"3504","TLE_LINE1":"1 48359U 21038G   21355.59720535  .00001676  00000-0  13133-3 0  9999","MEAN_MOTION_DDOT":"0.0000000000000","PERIOD":"95.592","OBJECT_TYPE":"PAYLOAD","REF_FRAME":"TEME","ELEMENT_SET_NO":"999","EPHEMERIS_TYPE":"0","OBJECT_ID":"2021-038G","MEAN_MOTION":"15.06406067","NORAD_CAT_ID":"48359","PERIAPSIS":"546.232","EPOCH":"2021-12-21T14:19:58.542240","MEAN_ELEMENT_THEORY":"SGP4","ARG_OF_PERICENTER":"84.4668","GP_ID":"192147487","MEAN_ANOMALY":"275.6480","SITE":"AFETR","TLE_LINE2":"2 48359  53.0556  70.8709 0001390  84.4668 275.6480 15.06406067 35044","COUNTRY_CODE":"US","FILE":"3246489","SEMIMAJOR_AXIS":"6925.330","CLASSIFICATION_TYPE":"U","ECCENTRICITY":"0.00013900"}];
